[{"OBJECT_NAME":"STARLINK-33828","OBJECT_ID":"2025-071A","EPOCH":"2026-03-09T12:29:09.352896","MEAN_MOTION":15.3022136,"ECCENTRICITY":0.00012504,"INCLINATION":53.1595,"RA_OF_ASC_NODE":142.876,"ARG_OF_PERICENTER":86.3008,"MEAN_ANOMALY":273.8135,"EPHEMERIS_TYPE":0,"CLASSIFICATION_TYPE":"U","NORAD_CAT_ID":63493,"ELEMENT_SET_NO":999,"REV_AT_EPOCH":5269,"BSTAR":0.00085536135,"MEAN_MOTION_DOT":0.00025076,"MEAN_MOTION_DDOT":0},{"OBJECT_NAME":"CZ-4B DEB","OBJECT_ID":"2010-051E","EPOCH":"2026-03-08T22:01:50.125728","MEAN_MOTION":15.23766972,"ECCENTRICITY":0.00561086,"INCLINATION":97.769,"RA_OF_ASC_NODE":240.5013,"ARG_OF_PERICENTER":301.1291,"MEAN_ANOMALY":58.4449,"EPHEMERIS_TYPE":0,"CLASSIFICATION_TYPE":"U","NORAD_CAT_ID":38184,"ELEMENT_SET_NO":999,"REV_AT_EPOCH":82066,"BSTAR":0.0024566319,"MEAN_MOTION_DOT":0.00062123,"MEAN_MOTION_DDOT":0}]
